[{"OBJECT_NAME":"STARLINK-5483","OBJECT_ID":"2023-021R","EPOCH":"2026-03-09T17:39:19.367712","MEAN_MOTION":14.98333011,"ECCENTRICITY":0.00032166,"INCLINATION":70.0008,"RA_OF_ASC_NODE":184.5203,"ARG_OF_PERICENTER":267.54,"MEAN_ANOMALY":92.5391,"EPHEMERIS_TYPE":0,"CLASSIFICATION_TYPE":"U","NORAD_CAT_ID":55643,"ELEMENT_SET_NO":999,"REV_AT_EPOCH":16879,"BSTAR":3.5601145e-5,"MEAN_MOTION_DOT":3.32e-6,"MEAN_MOTION_DDOT":0},{"OBJECT_NAME":"BREEZE-M R\/B","OBJECT_ID":"2012-044C","EPOCH":"2026-03-09T06:17:13.794144","MEAN_MOTION":11.15103911,"ECCENTRICITY":0.21027733,"INCLINATION":49.6566,"RA_OF_ASC_NODE":79.9123,"ARG_OF_PERICENTER":151.7401,"MEAN_ANOMALY":221.5702,"EPHEMERIS_TYPE":0,"CLASSIFICATION_TYPE":"U","NORAD_CAT_ID":38746,"ELEMENT_SET_NO":999,"REV_AT_EPOCH":51175,"BSTAR":0.00078847026,"MEAN_MOTION_DOT":0.00015809,"MEAN_MOTION_DDOT":0}]
